EUTELSAT 8 WEST B       
1 40875U 15039B   25365.60600458 -.00000050  00000+0  00000+0 0  9996
2 40875   0.0646 348.0222 0004141 291.6979  30.7148  1.00271540 37975
EUTELSAT 9B             
1 41310U 16005A   25365.60938461  .00000077  00000+0  00000+0 0  9991
2 41310   0.0415  61.8653 0004981 216.9474  49.8183  1.00271132 36431
EUTELSAT 65 WEST A      
1 41382U 16014A   25365.52332405 -.00000260  00000+0  00000+0 0  9992
2 41382   0.0749 309.6505 0002644 334.0911 299.6378  1.00268699 35851
EUTELSAT 117 WEST B     
1 41589U 16038B   25365.45960757  .00000004  00000+0  00000+0 0  9991
2 41589   0.0029 167.8384 0000541 238.9307 101.8260  1.00273050 34989
EUTELSAT 172B           
1 42741U 17029B   25365.54072638  .00000009  00000+0  00000+0 0  9990
2 42741   0.0357 139.4084 0000260  98.9655 228.4814  1.00270315 32052
EUTELSAT 7C             
1 44334U 19034B   25365.60903794  .00000063  00000+0  00000+0 0  9991
2 44334   0.0740 181.1995 0003585  83.1658  62.1335  1.00269359  5153
EUTELSAT 5 WEST B       
1 44624U 19067A   25365.60661125 -.00000027  00000+0  00000+0 0  9999
2 44624   0.0790 321.6915 0003437 317.0095  34.9457  1.00270343 22755
EUTELSAT KONNECT        
1 45027U 20005B   25365.60903794  .00000064  00000+0  00000+0 0  9992
2 45027   0.0681  93.6437 0001776 183.9947  49.0846  1.00269302 22658
